NORAD_CAT_ID,OBJECT_NAME,OBJECT_TYPE,EPOCH,MEAN_MOTION,ECCENTRICITY,INCLINATION,RA_OF_ASC_NODE,ARG_OF_PERICENTER,MEAN_ANOMALY,BSTAR,MEAN_MOTION_DOT,MEAN_MOTION_DDOT,TLE_LINE0,TLE_LINE1,TLE_LINE2,SEMIMAJOR_AXIS,PERIOD,APOGEE,PERIGEE,DECAYED
49180.0,STARLINK-3050,PAYLOAD,2023-09-02 19:30:25,14.98342126,0.0002973,69.9999,71.2686,271.7789,88.3029,0.00021584,2.484e-05,0.0,0 STARLINK-3050,1 49180U 21082BC  23245.81279716  .00002484  00000-0  21584-3 0  9993,2 49180  69.9999  71.2686 0002973 271.7789  88.3029 14.98342126110009,6950.155,96.106,574.087,569.954,0.0
49180.0,STARLINK-3050,PAYLOAD,2023-09-03 11:31:47,14.9832904,0.0002903,69.9996,69.586,270.5318,89.5508,7.6373e-05,8.18e-06,0.0,0 STARLINK-3050,1 49180U 21082BC  23246.48040924  .00000818  00000-0  76373-4 0  9990,2 49180  69.9996  69.5860 0002903 270.5318  89.5508 14.98329040110104,6950.196,96.107,574.079,570.043,0.0
49180.0,STARLINK-3050,PAYLOAD,2023-09-03 22:44:43,14.98329034,0.0002914,69.9998,68.4076,271.9211,88.1615,5.2922e-05,5.38e-06,0.0,0 STARLINK-3050,1 49180U 21082BC  23246.94773016  .00000538  00000-0  52922-4 0  9999,2 49180  69.9998  68.4076 0002914 271.9211  88.1615 14.98329034110176,6950.196,96.107,574.086,570.036,0.0
49180.0,STARLINK-3050,PAYLOAD,2023-09-04 05:09:16,14.98329857,0.0002922,70.0,67.7342,273.053,87.0294,6.4365e-05,6.75e-06,0.0,0 STARLINK-3050,1 49180U 21082BC  23247.21476956  .00000675  00000-0  64365-4 0  9999,2 49180  70.0000  67.7342 0002922 273.0530  87.0294 14.98329857110216,6950.193,96.107,574.089,570.027,0.0
49180.0,STARLINK-3050,PAYLOAD,2023-09-04 22:46:44,14.98336324,0.0003106,70.0003,65.8823,270.0351,90.0452,1.1638e-05,4.6e-07,0.0,0 STARLINK-3050,1 49180U 21082BC  23247.94912505  .00000046  00000-0  11638-4 0  9991,2 49180  70.0003  65.8823 0003106 270.0351  90.0452 14.98336324110324,6950.173,96.107,574.197,569.88,0.0
49180.0,STARLINK-3050,PAYLOAD,2023-09-05 05:11:15,14.98365921,0.0003368,70.0005,65.2091,274.8373,85.2401,-0.00059945,-7.245e-05,0.0,0 STARLINK-3050,1 49180U 21082BC  23248.21615680 -.00007245  00000-0 -59945-3 0  9998,2 49180  70.0005  65.2091 0003368 274.8373  85.2401 14.98365921110362,6950.082,96.105,574.288,569.606,0.0
49180.0,STARLINK-3050,PAYLOAD,2023-09-05 18:00:21,14.98330291,0.0003086,70.0003,63.8627,268.5926,91.4879,2.7724e-05,2.38e-06,0.0,0 STARLINK-3050,1 49180U 21082BC  23248.75024797  .00000238  00000-0  27724-4 0  9994,2 49180  70.0003  63.8627 0003086 268.5926  91.4879 14.98330291110449,6950.192,96.107,574.202,569.912,0.0
49180.0,STARLINK-3050,PAYLOAD,2023-09-06 11:37:49,14.98331169,0.0003091,70.0003,62.0109,268.8907,91.1898,6.211e-05,6.48e-06,0.0,0 STARLINK-3050,1 49180U 21082BC  23249.48460611  .00000648  00000-0  62110-4 0  9997,2 49180  70.0003  62.0109 0003091 268.8907  91.1898 14.98331169110558,6950.189,96.107,574.203,569.906,0.0
49180.0,STARLINK-3050,PAYLOAD,2023-09-06 21:14:38,14.98334875,0.0003105,70.0001,61.0007,268.9329,91.1474,7.6022e-05,8.14e-06,0.0,0 STARLINK-3050,1 49180U 21082BC  23249.88516300  .00000814  00000-0  76022-4 0  9990,2 49180  70.0001  61.0007 0003105 268.9329  91.1474 14.98334875110611,6950.178,96.107,574.201,569.885,0.0
49180.0,STARLINK-3050,PAYLOAD,2023-09-07 16:28:15,14.9833066,0.0003093,70.0001,58.9803,269.3225,90.758,3.5269e-05,3.28e-06,0.0,0 STARLINK-3050,1 49180U 21082BC  23250.68628561  .00000328  00000-0  35269-4 0  9991,2 49180  70.0001  58.9803 0003093 269.3225  90.7580 14.98330660110730,6950.191,96.107,574.206,569.906,0.0
49180.0,STARLINK-3050,PAYLOAD,2023-09-07 21:16:39,14.98332491,0.0003101,70.0,58.4754,269.0185,91.0619,4.1047e-05,3.97e-06,0.0,0 STARLINK-3050,1 49180U 21082BC  23250.88656427  .00000397  00000-0  41047-4 0  9992,2 49180  70.0000  58.4754 0003101 269.0185  91.0619 14.98332491110765,6950.185,96.107,574.205,569.895,0.0
49180.0,STARLINK-3050,PAYLOAD,2023-09-08 13:17:59,14.98332883,0.0003096,69.9999,56.7921,268.7729,91.3075,3.4852e-05,3.23e-06,0.0,0 STARLINK-3050,1 49180U 21082BC  23251.55416321  .00000323  00000-0  34852-4 0  9999,2 49180  69.9999  56.7921 0003096 268.7729  91.3075 14.98332883110864,6950.184,96.107,574.201,569.897,0.0
49180.0,STARLINK-3050,PAYLOAD,2023-09-08 18:06:23,14.9833453,0.0003234,70.0005,56.2875,273.4455,86.6334,3.1983e-05,2.89e-06,0.0,0 STARLINK-3050,1 49180U 21082BC  23251.75444221  .00000289  00000-0  31983-4 0  9994,2 49180  70.0005  56.2875 0003234 273.4455  86.6334 14.98334530110890,6950.179,96.107,574.292,569.796,0.0
49180.0,STARLINK-3050,PAYLOAD,2023-09-08 21:18:39,14.98336259,0.0003228,70.0006,55.9508,273.3685,86.7105,5.1413e-05,5.21e-06,0.0,0 STARLINK-3050,1 49180U 21082BC  23251.88796040  .00000521  00000-0  51413-4 0  9996,2 49180  70.0006  55.9508 0003228 273.3685  86.7105 14.98336259110917,6950.174,96.107,574.282,569.795,0.0
49180.0,STARLINK-3050,PAYLOAD,2023-09-09 10:07:44,14.9832721,0.0003148,70.0006,54.6045,272.7994,87.2805,-5.4562e-06,-1.58e-06,0.0,0 STARLINK-3050,1 49180U 21082BC  23252.42204688 -.00000158  00000-0 -54562-5 0  9996,2 49180  70.0006  54.6045 0003148 272.7994  87.2805 14.98327210110994,6950.202,96.107,574.254,569.879,0.0
49180.0,STARLINK-3050,PAYLOAD,2023-09-09 13:20:00,14.98327677,0.0003142,70.0007,54.2678,272.9709,87.109,-1.2825e-06,-1.08e-06,0.0,0 STARLINK-3050,1 49180U 21082BC  23252.55556683 -.00000108  00000-0 -12825-5 0  9996,2 49180  70.0007  54.2678 0003142 272.9709  87.1090 14.98327677111019,6950.2,96.107,574.249,569.881,0.0
49180.0,STARLINK-3050,PAYLOAD,2023-09-09 21:20:40,14.98332382,0.0003187,70.0008,53.4265,273.073,87.0064,5.4434e-05,5.57e-06,0.0,0 STARLINK-3050,1 49180U 21082BC  23252.88936243  .00000557  00000-0  54434-4 0  9993,2 49180  70.0008  53.4265 0003187 273.0730  87.0064 14.98332382111062,6950.186,96.107,574.266,569.836,0.0
49180.0,STARLINK-3050,PAYLOAD,2023-09-10 13:22:01,14.98332024,0.0003135,70.0008,51.7435,270.3127,89.7673,3.2156e-05,2.91e-06,0.0,0 STARLINK-3050,1 49180U 21082BC  23253.55696269  .00000291  00000-0  32156-4 0  9991,2 49180  70.0008  51.7435 0003135 270.3127  89.7673 14.98332024111164,6950.187,96.107,574.231,569.873,0.0
49180.0,STARLINK-3050,PAYLOAD,2023-09-11 03:47:13,14.98360929,0.0003392,70.0011,50.2287,274.2996,85.7775,-0.00047768,-5.793e-05,0.0,0 STARLINK-3050,1 49180U 21082BC  23254.15779239 -.00005793  00000-0 -47768-3 0  9995,2 49180  70.0011  50.2287 0003392 274.2996  85.7775 14.98360929111253,6950.097,96.105,574.32,569.605,0.0
49180.0,STARLINK-3050,PAYLOAD,2023-09-11 13:24:02,14.98328499,0.0003082,70.0017,49.2197,270.1826,89.898,5.1301e-05,5.19e-06,0.0,0 STARLINK-3050,1 49180U 21082BC  23254.55836421  .00000519  00000-0  51301-4 0  9994,2 49180  70.0017  49.2197 0003082 270.1826  89.8980 14.98328499111316,6950.198,96.107,574.205,569.92,0.0
49180.0,STARLINK-3050,PAYLOAD,2023-09-11 16:36:15,14.98377391,0.0003442,70.0013,48.8817,267.6831,92.3934,0.00057643,6.8e-05,0.0,0 STARLINK-3050,1 49180U 21082BC  23254.69184228  .00006800  00000-0  57643-3 0  9993,2 49180  70.0013  48.8817 0003442 267.6831  92.3934 14.98377391111338,6950.046,96.104,574.304,569.519,0.0
49180.0,STARLINK-3050,PAYLOAD,2023-09-11 19:48:34,14.98330891,0.0003099,70.0016,48.5458,269.9202,90.1601,5.7724e-05,5.96e-06,0.0,0 STARLINK-3050,1 49180U 21082BC  23254.82540253  .00000596  00000-0  57724-4 0  9999,2 49180  70.0016  48.5458 0003099 269.9202  90.1601 14.98330891111357,6950.19,96.107,574.209,569.901,0.0
49180.0,STARLINK-3050,PAYLOAD,2023-09-12 13:26:03,14.9833108,0.0003058,70.0017,46.6945,270.6777,89.4032,1.9605e-05,1.41e-06,0.0,0 STARLINK-3050,1 49180U 21082BC  23255.55976323  .00000141  00000-0  19605-4 0  9993,2 49180  70.0017  46.6945 0003058 270.6777  89.4032 14.98331080111461,6950.19,96.107,574.18,569.929,0.0
49180.0,STARLINK-3050,PAYLOAD,2023-09-12 19:50:35,14.98336477,0.000307,70.0018,46.0212,269.9296,90.1511,6.4032e-05,6.71e-06,0.0,0 STARLINK-3050,1 49180U 21082BC  23255.82679844  .00000671  00000-0  64032-4 0  9993,2 49180  70.0018  46.0212 0003070 269.9296  90.1511 14.98336477111505,6950.173,96.107,574.172,569.904,0.0
49180.0,STARLINK-3050,PAYLOAD,2023-09-13 13:28:03,14.9833546,0.0003106,70.0014,44.1686,270.6587,89.4216,0.00011564,1.287e-05,0.0,0 STARLINK-3050,1 49180U 21082BC  23256.56115555  .00001287  00000-0  11564-3 0  9994,2 49180  70.0014  44.1686 0003106 270.6587  89.4216 14.98335460111613,6950.176,96.107,574.2,569.882,0.0
49180.0,STARLINK-3050,PAYLOAD,2023-09-13 19:52:35,14.98340027,0.0003326,70.0014,43.4957,275.0435,85.0345,0.0001658,1.886e-05,0.0,0 STARLINK-3050,1 49180U 21082BC  23256.82819055  .00001886  00000-0  16580-3 0  9997,2 49180  70.0014  43.4957 0003326 275.0435  85.0345 14.98340027111655,6950.162,96.106,574.339,569.715,0.0
49180.0,STARLINK-3050,PAYLOAD,2023-09-14 10:17:49,14.98324837,0.000311,70.0014,41.9801,267.1586,92.9217,-3.1089e-05,-4.64e-06,0.0,0 STARLINK-3050,1 49180U 21082BC  23257.42904512 -.00000464  00000-0 -31089-4 0  9992,2 49180  70.0014  41.9801 0003110 267.1586  92.9217 14.98324837111742,6950.209,96.107,574.235,569.912,0.0
49180.0,STARLINK-3050,PAYLOAD,2023-09-14 13:30:05,14.98323141,0.0003142,70.0014,41.6436,272.1294,87.9505,-4.5349e-05,-6.34e-06,0.0,0 STARLINK-3050,1 49180U 21082BC  23257.56256752 -.00000634  00000-0 -45349-4 0  9996,2 49180  70.0014  41.6436 0003142 272.1294  87.9505 14.98323141111763,6950.214,96.107,574.263,569.895,0.0
49180.0,STARLINK-3050,PAYLOAD,2023-09-14 19:54:38,14.98324457,0.0003196,70.0015,40.9705,271.2036,88.8757,-7.1988e-05,-9.52e-06,0.0,0 STARLINK-3050,1 49180U 21082BC  23257.82960793 -.00000952  00000-0 -71988-4 0  9993,2 49180  70.0015  40.9705 0003196 271.2036  88.8757 14.98324457111803,6950.21,96.107,574.296,569.854,0.0
49180.0,STARLINK-3050,PAYLOAD,2023-09-15 10:19:50,14.9833367,0.0003247,70.0013,39.4561,270.6146,89.4641,3.2467e-05,2.94e-06,0.0,0 STARLINK-3050,1 49180U 21082BC  23258.43044029  .00000294  00000-0  32467-4 0  9992,2 49180  70.0013  39.4561 0003247 270.6146  89.4641 14.98333670111891,6950.182,96.107,574.303,569.79,0.0
